IRIDIUM 155             
1 43573U 18061E   24345.77697063  .00000680  00000+0  23587-3 0  9992
2 43573  86.3951 287.9296 0002015  78.0612 282.0809 14.34215177334038
IRIDIUM 154             
1 43574U 18061F   24345.68817669  .00000225  00000+0  73251-4 0  9998
2 43574  86.3954 288.0728 0002210  87.4422 272.7027 14.34218526334077
IRIDIUM 163             
1 43575U 18061G   24345.94822338  .00000145  00000+0  44560-4 0  9999
2 43575  86.3953 287.8969 0002198  79.9525 280.1918 14.34217959334088
IRIDIUM 156             
1 43576U 18061H   24345.92283841  .00000565  00000+0  19455-3 0  9998
2 43576  86.3952 287.9140 0001858  78.6515 281.4890 14.34224470334075
IRIDIUM 164             
1 43577U 18061J   24345.76428679  .00000498  00000+0  17089-3 0  9997
2 43577  86.3954 288.0120 0002076  91.5880 268.5553 14.34217493334091
IRIDIUM 159             
1 43578U 18061K   24345.94188093  .00000154  00000+0  48080-4 0  9996
2 43578  86.3950 287.8859 0002271  87.6265 272.5191 14.34218049334084
IRIDIUM 180             
1 43922U 19002A   24345.94137720  .00000529  00000+0  18187-3 0  9996
2 43922  86.3989 224.7580 0002041  83.1346 277.0082 14.34213183309698
IRIDIUM 176             
1 43923U 19002B   24345.63001268  .00002111  00000+0  33084-3 0  9992
2 43923  86.6118 224.8957 0003170  80.9642 279.1934 14.72242952317802
IRIDIUM 168             
1 43924U 19002C   24345.72570964  .00000581  00000+0  20053-3 0  9998
2 43924  86.3994 224.9099 0002177  85.6203 274.5241 14.34211810309641
IRIDIUM 173             
1 43925U 19002D   24345.78281189  .00000558  00000+0  19206-3 0  9995
2 43925  86.3988 224.7975 0002053  81.3095 278.8333 14.34220982309639
IRIDIUM 169             
1 43926U 19002E   24345.79696776  .00000869  00000+0  27771-3 0  9990
2 43926  86.4231 256.4059 0002884  46.4690 313.6747 14.38598551310668
IRIDIUM 172             
1 43927U 19002F   24345.63693229  .00000271  00000+0  89868-4 0  9997
2 43927  86.3989 224.8645 0002188  86.6795 273.4651 14.34216791309627
IRIDIUM 175             
1 43928U 19002G   24345.89648436  .00002086  00000+0  32672-3 0  9992
2 43928  86.1525 187.9993 0001175  47.7098 312.4218 14.72256485317837
IRIDIUM 171             
1 43929U 19002H   24345.61790492  .00000582  00000+0  20074-3 0  9995
2 43929  86.3998 225.1174 0001637  91.2467 268.8916 14.34219042309619
IRIDIUM 170             
1 43930U 19002J   24345.16039035  .00002370  00000+0  37183-3 0  9992
2 43930  86.6118 225.0972 0002380  79.6165 280.5320 14.72266021317748
IRIDIUM 167             
1 43931U 19002K   24345.75108120  .00000597  00000+0  20615-3 0  9991
2 43931  86.3989 224.8344 0001679  78.9054 281.2330 14.34224972309636
IRIDIUM 181             
1 56726U 23068S   24345.93348955  .00000859  00000+0  24787-3 0  9991
2 56726  86.6855 286.9438 0001962  93.5106 266.6320 14.43610353 82632
IRIDIUM 177             
1 56727U 23068T   24345.39499844  .00003331  00000+0  43476-3 0  9990
2 56727  86.1987 231.6759 0002181  79.7482 280.3985 14.80238118 84441
IRIDIUM 174             
1 56728U 23068U   24345.25439031  .00003178  00000+0  41465-3 0  9993
2 56728  86.1994 231.8604 0002168  93.8029 266.3440 14.80234747 84422
IRIDIUM 178             
1 56729U 23068V   24345.85737092  .00003042  00000+0  39669-3 0  9991
2 56729  86.5777 257.3977 0001889  97.2773 262.8663 14.80252831 84517
IRIDIUM 179             
1 56730U 23068W   24345.71676254  .00003488  00000+0  45535-3 0  9993
2 56730  86.6782 263.8159 0002305  89.2259 270.9227 14.80249121 84495
